{
    "CCSDS_OMM_VERS": "3.0",
    "COMMENT": "GENERATED VIA SPACE-TRACK.ORG API",
    "CREATION_DATE": "2025-11-24T07:26:19",
    "ORIGINATOR": "18 SPCS",
    "OBJECT_NAME": "NAVSTAR 69 (USA 248)",
    "OBJECT_ID": "2014-008A",
    "CENTER_NAME": "EARTH",
    "REF_FRAME": "TEME",
    "TIME_SYSTEM": "UTC",
    "MEAN_ELEMENT_THEORY": "SGP4",
    "EPOCH": "2025-11-23T18:20:36.148128",
    "MEAN_MOTION": "2.00573369",
    "ECCENTRICITY": "0.00787770",
    "INCLINATION": "53.6277",
    "RA_OF_ASC_NODE": "157.6988",
    "ARG_OF_PERICENTER": "226.2644",
    "MEAN_ANOMALY": "133.1274",
    "EPHEMERIS_TYPE": "0",
    "CLASSIFICATION_TYPE": "U",
    "NORAD_CAT_ID": "39533",
    "ELEMENT_SET_NO": "999",
    "REV_AT_EPOCH": "8556",
    "BSTAR": "0.00000000000000",
    "MEAN_MOTION_DOT": "0.00000076",
    "MEAN_MOTION_DDOT": "0.0000000000000",
    "SEMIMAJOR_AXIS": "26559.486",
    "PERIOD": "717.942",
    "APOAPSIS": "20390.578",
    "PERIAPSIS": "19972.123",
    "OBJECT_TYPE": "PAYLOAD",
    "RCS_SIZE": "LARGE",
    "COUNTRY_CODE": "US",
    "LAUNCH_DATE": "2014-02-21",
    "SITE": "AFETR",
    "DECAY_DATE": null,
    "FILE": "4896948",
    "GP_ID": "303366178",
    "TLE_LINE0": "0 NAVSTAR 69 (USA 248)",
    "TLE_LINE1": "1 39533U 14008A   25327.76430727  .00000076  00000-0  00000+0 0  9993",
    "TLE_LINE2": "2 39533  53.6277 157.6988 0078777 226.2644 133.1274  2.00573369 85561"
}